JINJUSAT-1B             
1 63210U 25052A   26068.66363707  .00019955  00000+0  68430-3 0  9998
2 63210  97.4113 325.4613 0005550  82.1930 277.9941 15.30194857 54866
STARLINK-34140          
1 64085U 25107X   26068.38701486  .00022605  00000+0  82799-3 0  9999
2 64085  42.9957 203.2944 0000945 152.0067 208.0836 15.27598758 46053
